CCSDS_OMM_VERS = 2.0
CREATION_DATE  = 
ORIGINATOR     = 

OBJECT_NAME    = SL-16 R/B
OBJECT_ID      = 1993-016B
CENTER_NAME    = EARTH
REF_FRAME      = TEME
TIME_SYSTEM    = UTC
MEAN_ELEMENT_THEORY = SGP/SGP4

EPOCH          = 2025-12-11T12:05:13.083360
MEAN_MOTION    = 14.15287046
ECCENTRICITY   = .00078463
INCLINATION    = 71.0085
RA_OF_ASC_NODE = 40.4005
ARG_OF_PERICENTER = 99.9121
MEAN_ANOMALY   = 260.2887

EPHEMERIS_TYPE = 0
CLASSIFICATION_TYPE = U
NORAD_CAT_ID   = 22566
ELEMENT_SET_NO = 999
REV_AT_EPOCH   = 68969
BSTAR          = -.2332799E-4
MEAN_MOTION_DOT = -.93E-6
MEAN_MOTION_DDOT = 0

CCSDS_OMM_VERS = 2.0
CREATION_DATE  = 
ORIGINATOR     = 

OBJECT_NAME    = COSMOS 2242
OBJECT_ID      = 1993-024A
CENTER_NAME    = EARTH
REF_FRAME      = TEME
TIME_SYSTEM    = UTC
MEAN_ELEMENT_THEORY = SGP/SGP4

EPOCH          = 2025-12-12T00:48:42.007392
MEAN_MOTION    = 14.96101756
ECCENTRICITY   = .00149159
INCLINATION    = 82.5193
RA_OF_ASC_NODE = 350.5195
ARG_OF_PERICENTER = 236.8826
MEAN_ANOMALY   = 123.0965

EPHEMERIS_TYPE = 0
CLASSIFICATION_TYPE = U
NORAD_CAT_ID   = 22626
ELEMENT_SET_NO = 999
REV_AT_EPOCH   = 76728
BSTAR          = .31757394E-3
MEAN_MOTION_DOT = .3603E-4
MEAN_MOTION_DDOT = 0

CCSDS_OMM_VERS = 2.0
CREATION_DATE  = 
ORIGINATOR     = 

OBJECT_NAME    = SL-16 R/B
OBJECT_ID      = 1993-059B
CENTER_NAME    = EARTH
REF_FRAME      = TEME
TIME_SYSTEM    = UTC
MEAN_ELEMENT_THEORY = SGP/SGP4

EPOCH          = 2025-12-11T22:56:14.407584
MEAN_MOTION    = 14.17213733
ECCENTRICITY   = .00179654
INCLINATION    = 70.9893
RA_OF_ASC_NODE = 196.1399
ARG_OF_PERICENTER = 336.7467
MEAN_ANOMALY   = 23.2842

EPHEMERIS_TYPE = 0
CLASSIFICATION_TYPE = U
NORAD_CAT_ID   = 22803
ELEMENT_SET_NO = 999
REV_AT_EPOCH   = 66710
BSTAR          = -.21013281E-4
MEAN_MOTION_DOT = -.91E-6
MEAN_MOTION_DDOT = 0

CCSDS_OMM_VERS = 2.0
CREATION_DATE  = 
ORIGINATOR     = 

OBJECT_NAME    = ARIANE 40 R/B
OBJECT_ID      = 1993-061H
CENTER_NAME    = EARTH
REF_FRAME      = TEME
TIME_SYSTEM    = UTC
MEAN_ELEMENT_THEORY = SGP/SGP4

EPOCH          = 2025-12-11T10:20:46.717728
MEAN_MOTION    = 14.32800369
ECCENTRICITY   = .00107957
INCLINATION    = 98.5078
RA_OF_ASC_NODE = 50.9849
ARG_OF_PERICENTER = 179.8289
MEAN_ANOMALY   = 180.2901

EPHEMERIS_TYPE = 0
CLASSIFICATION_TYPE = U
NORAD_CAT_ID   = 22830
ELEMENT_SET_NO = 999
REV_AT_EPOCH   = 68146
BSTAR          = .1882896E-3
MEAN_MOTION_DOT = .47E-5
MEAN_MOTION_DDOT = 0

CCSDS_OMM_VERS = 2.0
CREATION_DATE  = 
ORIGINATOR     = 

OBJECT_NAME    = COSMOS 2278
OBJECT_ID      = 1994-023A
CENTER_NAME    = EARTH
REF_FRAME      = TEME
TIME_SYSTEM    = UTC
MEAN_ELEMENT_THEORY = SGP/SGP4

EPOCH          = 2025-12-11T11:24:01.955232
MEAN_MOTION    = 14.14350799
ECCENTRICITY   = .00083856
INCLINATION    = 71.0544
RA_OF_ASC_NODE = 359.6573
ARG_OF_PERICENTER = 181.7967
MEAN_ANOMALY   = 178.3127

EPHEMERIS_TYPE = 0
CLASSIFICATION_TYPE = U
NORAD_CAT_ID   = 23087
ELEMENT_SET_NO = 999
REV_AT_EPOCH   = 63233
BSTAR          = -.5119851E-4
MEAN_MOTION_DOT = -.145E-5
MEAN_MOTION_DDOT = 0

CCSDS_OMM_VERS = 2.0
CREATION_DATE  = 
ORIGINATOR     = 

OBJECT_NAME    = SL-16 R/B
OBJECT_ID      = 1994-023B
CENTER_NAME    = EARTH
REF_FRAME      = TEME
TIME_SYSTEM    = UTC
MEAN_ELEMENT_THEORY = SGP/SGP4

EPOCH          = 2025-12-11T23:39:41.247648
MEAN_MOTION    = 14.15002900
ECCENTRICITY   = .00013266
INCLINATION    = 71.0009
RA_OF_ASC_NODE = 255.0689
ARG_OF_PERICENTER = 28.7516
MEAN_ANOMALY   = 331.3679

EPHEMERIS_TYPE = 0
CLASSIFICATION_TYPE = U
NORAD_CAT_ID   = 23088
ELEMENT_SET_NO = 999
REV_AT_EPOCH   = 63368
BSTAR          = .56537828E-4
MEAN_MOTION_DOT = .62E-6
MEAN_MOTION_DDOT = 0

CCSDS_OMM_VERS = 2.0
CREATION_DATE  = 
ORIGINATOR     = 

OBJECT_NAME    = SL-16 R/B
OBJECT_ID      = 1994-074B
CENTER_NAME    = EARTH
REF_FRAME      = TEME
TIME_SYSTEM    = UTC
MEAN_ELEMENT_THEORY = SGP/SGP4

EPOCH          = 2025-12-11T23:57:30.000096
MEAN_MOTION    = 14.79288442
ECCENTRICITY   = .00075067
INCLINATION    = 97.7203
RA_OF_ASC_NODE = 15.3323
ARG_OF_PERICENTER = 137.8753
MEAN_ANOMALY   = 282.3289

EPHEMERIS_TYPE = 0
CLASSIFICATION_TYPE = U
NORAD_CAT_ID   = 23343
ELEMENT_SET_NO = 999
REV_AT_EPOCH   = 67428
BSTAR          = .11298681E-3
MEAN_MOTION_DOT = .791E-5
MEAN_MOTION_DDOT = 0

CCSDS_OMM_VERS = 2.0
CREATION_DATE  = 
ORIGINATOR     = 

OBJECT_NAME    = SL-16 R/B
OBJECT_ID      = 1994-077B
CENTER_NAME    = EARTH
REF_FRAME      = TEME
TIME_SYSTEM    = UTC
MEAN_ELEMENT_THEORY = SGP/SGP4

EPOCH          = 2025-12-12T00:02:27.734496
MEAN_MOTION    = 14.15549279
ECCENTRICITY   = .00046418
INCLINATION    = 70.9811
RA_OF_ASC_NODE = 176.9664
ARG_OF_PERICENTER = 284.6425
MEAN_ANOMALY   = 75.4183

EPHEMERIS_TYPE = 0
CLASSIFICATION_TYPE = U
NORAD_CAT_ID   = 23405
ELEMENT_SET_NO = 999
REV_AT_EPOCH   = 60382
BSTAR          = .18532943E-3
MEAN_MOTION_DOT = .315E-5
MEAN_MOTION_DDOT = 0

CCSDS_OMM_VERS = 2.0
CREATION_DATE  = 
ORIGINATOR     = 

OBJECT_NAME    = ARIANE 40+ R/B
OBJECT_ID      = 1995-021B
CENTER_NAME    = EARTH
REF_FRAME      = TEME
TIME_SYSTEM    = UTC
MEAN_ELEMENT_THEORY = SGP/SGP4

EPOCH          = 2025-12-11T20:14:43.743840
MEAN_MOTION    = 14.39694508
ECCENTRICITY   = .00075332
INCLINATION    = 98.4652
RA_OF_ASC_NODE = 53.4432
ARG_OF_PERICENTER = 52.4296
MEAN_ANOMALY   = 62.9392

EPHEMERIS_TYPE = 0
CLASSIFICATION_TYPE = U
NORAD_CAT_ID   = 23561
ELEMENT_SET_NO = 999
REV_AT_EPOCH   = 60660
BSTAR          = .17867911E-3
MEAN_MOTION_DOT = .516E-5
MEAN_MOTION_DDOT = 0

CCSDS_OMM_VERS = 2.0
CREATION_DATE  = 
ORIGINATOR     = 

OBJECT_NAME    = SL-16 R/B
OBJECT_ID      = 1995-058B
CENTER_NAME    = EARTH
REF_FRAME      = TEME
TIME_SYSTEM    = UTC
MEAN_ELEMENT_THEORY = SGP/SGP4

EPOCH          = 2025-12-12T00:06:16.483680
MEAN_MOTION    = 14.15483923
ECCENTRICITY   = .00149678
INCLINATION    = 71.0225
RA_OF_ASC_NODE = 4.3484
ARG_OF_PERICENTER = 256.3333
MEAN_ANOMALY   = 103.6124

EPHEMERIS_TYPE = 0
CLASSIFICATION_TYPE = U
NORAD_CAT_ID   = 23705
ELEMENT_SET_NO = 999
REV_AT_EPOCH   = 55544
BSTAR          = .70357768E-4
MEAN_MOTION_DOT = .9E-6
MEAN_MOTION_DDOT = 0

CCSDS_OMM_VERS = 2.0
CREATION_DATE  = 
ORIGINATOR     = 

OBJECT_NAME    = SL-16 R/B
OBJECT_ID      = 1996-051B
CENTER_NAME    = EARTH
REF_FRAME      = TEME
TIME_SYSTEM    = UTC
MEAN_ELEMENT_THEORY = SGP/SGP4

EPOCH          = 2025-12-11T11:55:50.259936
MEAN_MOTION    = 14.12396517
ECCENTRICITY   = .0019381
INCLINATION    = 70.7594
RA_OF_ASC_NODE = 1.9144
ARG_OF_PERICENTER = 262.8452
MEAN_ANOMALY   = 97.0464

EPHEMERIS_TYPE = 0
CLASSIFICATION_TYPE = U
NORAD_CAT_ID   = 24298
ELEMENT_SET_NO = 999
REV_AT_EPOCH   = 50919
BSTAR          = .46668726E-4
MEAN_MOTION_DOT = .37E-6
MEAN_MOTION_DDOT = 0

CCSDS_OMM_VERS = 2.0
CREATION_DATE  = 
ORIGINATOR     = 

OBJECT_NAME    = ORBVIEW 2 (SEASTAR)
OBJECT_ID      = 1997-037A
CENTER_NAME    = EARTH
REF_FRAME      = TEME
TIME_SYSTEM    = UTC
MEAN_ELEMENT_THEORY = SGP/SGP4

EPOCH          = 2025-12-12T00:13:08.723136
MEAN_MOTION    = 14.35416397
ECCENTRICITY   = .00016859
INCLINATION    = 98.8457
RA_OF_ASC_NODE = 143.0652
ARG_OF_PERICENTER = 344.2524
MEAN_ANOMALY   = 15.8607

EPHEMERIS_TYPE = 0
CLASSIFICATION_TYPE = U
NORAD_CAT_ID   = 24883
ELEMENT_SET_NO = 999
REV_AT_EPOCH   = 49589
BSTAR          = .19932651E-3
MEAN_MOTION_DOT = .526E-5
MEAN_MOTION_DDOT = 0

