SL-16 R/B               
1 22566U 93016B   25345.50362365 -.00000093  00000+0 -23328-4 0  9994
2 22566  71.0085  40.4005 0007846  99.9121 260.2887 14.15287046689692
COSMOS 2242             
1 22626U 93024A   25346.03381953  .00003603  00000+0  31757-3 0  9995
2 22626  82.5193 350.5195 0014915 236.8826 123.0965 14.96101756767287
SL-16 R/B               
1 22803U 93059B   25345.95572231 -.00000091  00000+0 -21013-4 0  9996
2 22803  70.9893 196.1399 0017965 336.7467  23.2842 14.17213733667108
ARIANE 40 R/B           
1 22830U 93061H   25345.43109627  .00000470  00000+0  18829-3 0  9996
2 22830  98.5078  50.9849 0010795 179.8289 180.2901 14.32800369681467
COSMOS 2278             
1 23087U 94023A   25345.47502263 -.00000145  00000+0 -51199-4 0  9996
2 23087  71.0544 359.6573 0008385 181.7967 178.3127 14.14350799632333
SL-16 R/B               
1 23088U 94023B   25345.98589407  .00000062  00000+0  56538-4 0  9996
2 23088  71.0009 255.0689 0001326  28.7516 331.3679 14.15002900633686
SL-16 R/B               
1 23343U 94074B   25345.99826389  .00000791  00000+0  11299-3 0  9993
2 23343  97.7203  15.3323 0007506 137.8753 282.3289 14.79288442674284
SL-16 R/B               
1 23405U 94077B   25346.00170989  .00000315  00000+0  18533-3 0  9996
2 23405  70.9811 176.9664 0004641 284.6425  75.4183 14.15549279603821
ARIANE 40+ R/B          
1 23561U 95021B   25345.84356185  .00000516  00000+0  17868-3 0  9997
2 23561  98.4652  53.4432 0007533  52.4296  62.9392 14.39694508606608
SL-16 R/B               
1 23705U 95058B   25346.00435745  .00000090  00000+0  70358-4 0  9997
2 23705  71.0225   4.3484 0014967 256.3333 103.6124 14.15483923555441
SL-16 R/B               
1 24298U 96051B   25345.49710949  .00000037  00000+0  46669-4 0  9992
2 24298  70.7594   1.9144 0019381 262.8452  97.0464 14.12396517509192
ORBVIEW 2 (SEASTAR)     
1 24883U 97037A   25346.00912874  .00000526  00000+0  19933-3 0  9992
2 24883  98.8457 143.0652 0001685 344.2524  15.8607 14.35416397495898
